[{"OBJECT_NAME":"STARLINK-31811","OBJECT_ID":"2024-112P","EPOCH":"2026-03-09T10:34:28.495776","MEAN_MOTION":15.30197384,"ECCENTRICITY":0.00012078,"INCLINATION":53.1604,"RA_OF_ASC_NODE":79.4897,"ARG_OF_PERICENTER":84.2619,"MEAN_ANOMALY":275.8519,"EPHEMERIS_TYPE":0,"CLASSIFICATION_TYPE":"U","NORAD_CAT_ID":60051,"ELEMENT_SET_NO":999,"REV_AT_EPOCH":9855,"BSTAR":5.1426985e-5,"MEAN_MOTION_DOT":1.164e-5,"MEAN_MOTION_DDOT":0},{"OBJECT_NAME":"HYPERFIELD-1A","OBJECT_ID":"2024-149CY","EPOCH":"2026-03-09T18:21:25.814304","MEAN_MOTION":15.29681349,"ECCENTRICITY":0.00038648,"INCLINATION":97.3842,"RA_OF_ASC_NODE":149.5066,"ARG_OF_PERICENTER":313.7844,"MEAN_ANOMALY":46.3076,"EPHEMERIS_TYPE":0,"CLASSIFICATION_TYPE":"U","NORAD_CAT_ID":60562,"ELEMENT_SET_NO":999,"REV_AT_EPOCH":8683,"BSTAR":0.00030052114,"MEAN_MOTION_DOT":8.569e-5,"MEAN_MOTION_DDOT":0}]
