STARLINK-31811          
1 60051U 24112P   26068.44060759  .00001164  00000+0  51427-4 0  9993
2 60051  53.1604  79.4897 0001207  84.2619 275.8519 15.30197384 98552
HYPERFIELD-1A           
1 60562U 24149CY  26068.76488211  .00008569  00000+0  30052-3 0  9998
2 60562  97.3842 149.5066 0003865 313.7844  46.3076 15.29681349 86836
